[{"OBJECT_NAME":"STARLINK-4502","OBJECT_ID":"2022-101AG","EPOCH":"2026-03-09T09:32:45.285504","MEAN_MOTION":15.08837837,"ECCENTRICITY":0.00013195,"INCLINATION":53.2171,"RA_OF_ASC_NODE":65.4309,"ARG_OF_PERICENTER":90.361,"MEAN_ANOMALY":269.7533,"EPHEMERIS_TYPE":0,"CLASSIFICATION_TYPE":"U","NORAD_CAT_ID":53557,"ELEMENT_SET_NO":999,"REV_AT_EPOCH":19691,"BSTAR":1.1913437e-5,"MEAN_MOTION_DOT":-9.8e-7,"MEAN_MOTION_DDOT":0},{"OBJECT_NAME":"NOAA 17 DEB","OBJECT_ID":"2002-032W","EPOCH":"2026-03-09T23:34:50.358720","MEAN_MOTION":15.06684432,"ECCENTRICITY":0.0012716,"INCLINATION":98.7039,"RA_OF_ASC_NODE":76.0065,"ARG_OF_PERICENTER":104.6864,"MEAN_ANOMALY":255.577,"EPHEMERIS_TYPE":0,"CLASSIFICATION_TYPE":"U","NORAD_CAT_ID":48181,"ELEMENT_SET_NO":999,"REV_AT_EPOCH":26088,"BSTAR":0.0078736038,"MEAN_MOTION_DOT":0.00118919,"MEAN_MOTION_DDOT":0}]
